#dP2022  1 30  0  0  0.00000000      96 __u+U ITR00 FIT  IAC
## 2195      0.00000000   900.00000000 59609 0.0000000000000
+  113   C06C07C08C09C10C11C12C13C14C16C19C20C21C22C23C24C25
+        C26C27C28C29C30C32C33C34C35C36C37C38C39C40C41C42C43
+        C44C45C46E01E02E03E04E05E07E08E09E11E12E13E14E15E18
+        E19E21E24E25E26E27E30E31E33E36G01G02G03G04G05G06G07
+        G08G09G10G11G12G13G14G15G16G17G18G19G20G21G22G23G24
+        G25G26G27G28G29G30G31G32R01R02R03R04R05R07R08R09R11
+        R12R13R14R15R17R18R19R20R21R22R24  0  0  0  0  0  0
++         7  7  8  8  7  6  7  8 11  7  7  6  6  7  7  8  8
++         8  9  7  7  6  7  7  8  6  6  7  0  7  8  8  8  9
++         5  5  7  7  6  7  7  7  6  6  6  6  7  6  6  6  6
++         6  5  6  6  6  7  7  6  7  7  7  6  6  5  8  5  6
++         6  7  7  6  7  7  7  6  6  7  6  7  6  7  6  6  4
++         6  6  7  7  7  7  6  6  7  5  6  6  6  7  7  7  8
++         8  6  7  7  6  7  7  8  8  6  7  0  0  0  0  0  0
%c M  cc GPS ccc cccc cccc cccc cccc ccccc ccccc ccccc ccccc
%c cc cc ccc ccc cccc cccc cccc cccc ccccc ccccc ccccc ccccc
%f  0.0000000  0.000000000  0.00000000000  0.000000000000000
%f  0.0000000  0.000000000  0.00000000000  0.000000000000000
%i    0    0    0    0      0      0      0      0         0
%i    0    0    0    0      0      0      0      0         0
/* INFORMATION & ANALYSIS CENTER (IAC)      ULTRA-RAPID DATA
/* S/V CLOCKS ARE ALIGNED TO GNSS TIME                      
/* G:C1WC2W R:C1PC2P E:C1XC5X C:C2IC6I J:C1CC2S             
/* PCV:IGS14_2194 OL/AL:FES2004  NONE     YN ORB:CoN CLK:CoN
*  2022 01 30 15  0  0.00000000
PC06 -12344.092725  23249.442898 -32981.381849    -34.798138
PC07 -14428.335896  39141.240538   5576.583210      8.118705
PC08   1009.557776  32991.898438  26338.895332     98.264293
PC09  -2455.117879  24240.773880 -34099.294537   -479.527398
PC10  -8383.875286  39363.338248  11996.636842    139.821210
PC11  22706.675694  -7944.157504 -14098.016908   -238.732418
PC12  27592.590062   3152.826200   2830.707825   -435.519100
PC13   6001.734280  36261.732970  21037.506394   -131.416253
PC14  18806.821230 -18497.186776  -9161.492690    461.222407
PC16 -14700.204442  22241.086033 -32597.235823     69.823918
PC19 -14572.501077  23791.243451    -57.462933    903.560493
PC20 -19874.990618  11723.532447  15692.153674   -813.410539
PC21  13563.794144   8130.717103 -22975.704470   -965.607688
PC22   -614.980891  22531.918918 -16437.328992   -958.204540
PC23  -8504.655173 -25799.810776   6358.625680   -971.994438
PC24  17727.957117    381.695485  21538.579511   -944.035420
PC25   5440.494697 -19040.103355  19642.284657   -786.769889
PC26  18964.277903  16992.312643  11449.036018    786.196009
PC27 -24041.942893  -8801.487635 -11142.506843    669.567077
PC28  -7159.526299 -15565.526871 -22022.135911     26.923563
PC29 -13768.057673  13766.884131  19989.409248    508.428722
PC30 -27090.598098   3715.805426   5637.294430    492.301712
PC32 -13605.701673  -8115.475990  22989.121998   -961.208409
PC33  14466.131989 -23871.041823     16.523367   -955.263966
PC34  26773.819566  -4294.731626  -6541.932523   -480.186130
PC35   6852.317275  15492.407644  22165.040768    116.861104
PC36  -6229.281600  18574.177172 -19860.179240   -885.016400
PC37 -18283.943374 -18229.110017 -10545.910303   -957.916382
PC38      0.000000      0.000000      0.000000 999999.999999
PC39 -19565.950695  21811.772603 -30365.277907     34.732892
PC40 -20677.588130  36422.292420   3997.601746    240.134539
PC41    827.937635 -22757.953525  16175.140112   -929.723842
PC42  19854.652481 -10891.369787 -16271.336172   -929.537965
PC43  14445.418305 -13598.836742 -19619.281672   -944.796781
PC44  24182.639787   8128.216067  11259.484733    548.598148
PC45   8725.987868  25794.311361  -6178.561760    667.466131
PC46 -17104.269772   1145.887570 -22016.149787   -142.131450
PE01  -3252.977996 -28893.151705  -5505.634595   -569.500866
PE02   3344.568056  28878.321632   5639.343189    277.003981
PE03   1218.582403  18191.402760 -23322.038731   -522.528544
PE04 -19799.414208  -6002.921897  21173.272046   -953.926700
PE05 -18446.690635  19921.320068 -11796.068432   -213.745285
PE07  27097.679692 -10033.507624  -6430.116978   -633.868074
PE08  20069.039749   5482.297213 -21060.743257   5863.576967
PE09 -27023.154499  10321.694609   6252.940411   5377.340961
PE11 -24002.796918   -981.430836  17303.460344   4565.255086
PE12 -25225.012255 -15478.614694   -961.506498   4784.243023
PE13  24272.091459   1487.442643 -16861.371532    426.113893
PE14  -1312.796049  15649.215819  17510.656630  -1728.317177
PE15  25198.117938  15485.068001   1131.195843    766.259161
PE18   3943.336888 -21755.236739 -23735.542837  -1851.192306
PE19   1523.210011 -18968.791998  22673.046492    490.432340
PE21   8549.986280 -25628.661637  12074.531715   -714.265293
PE24 -16414.120160   6008.495665 -23907.904938  -1363.473452
PE25  -8689.787145  25497.912891 -12283.430579   -561.978830
PE26   8184.095991 -14026.158311 -24737.098993   -747.881223
PE27  16163.126317  -7427.722615  23655.738722   -221.147709
PE30  13772.157930  16162.351992  20621.257070   -233.894210
PE31 -14201.748616 -14961.018544 -21219.431919   -491.476365
PE33 -11286.863452 -20289.547821 -18355.570648   -459.894996
PE36  -9100.559414  13296.078605  24839.718914   -325.331156
PG01 -22236.314696 -13855.128819   5095.796139    444.042256
PG02  10464.050849  19689.109051  15003.267638   -649.853691
PG03 -13311.918303  -8631.009799  21217.086005    -99.575159
PG04 -22131.248637  -2900.480560  14460.454820   -192.354210
PG05   6489.833597  22395.425741 -12739.267036    -69.693459
PG06  -5153.090342  14378.005183  21790.060476    186.238425
PG07 -20160.059100   -550.945084 -17149.885001    306.374484
PG08 -13752.201786  -9754.402577 -20626.195741    -54.189604
PG09 -25237.134216   6901.072377   4600.836253   -356.138039
PG10  11544.215439 -20214.902437 -12369.841346   -307.016801
PG11   8094.948802  20776.207425  14440.889781    -95.275554
PG12  11496.261995  12263.098597  20335.271287   -163.559042
PG13   5042.666115  14305.811805 -21962.223748    253.631299
PG14 -12914.798318  19397.448585 -12686.907734    -77.656523
PG15  15480.621739   8746.224282 -20221.260571    -87.617255
PG16  -1292.679545 -24306.027814 -10303.474405   -462.840468
PG17 -20595.949752  13751.070461  10098.305182    568.428702
PG18  19489.660180    102.275493 -18091.959896    250.534469
PG19 -14586.331763  15080.719845  15916.271553    112.385136
PG20   1923.175746  26509.551301  -2536.811618    516.935007
PG21 -20453.900973 -16925.758584  -3612.025192    157.149729
PG22  10671.939671 -16462.344442  18212.710051    206.204358
PG23  14886.538390  -9753.127759 -19698.295470      6.062650
PG24  22229.843210  14937.124247    218.614291    276.430213
PG25  15365.876179  -1579.724447  21299.134394    278.420742
PG26   4856.314461 -25742.930030   3126.524815    178.950678
PG27  -2063.529307 -15155.905635 -21867.490608     96.036841
PG28  -9319.277686  24478.159803  -4555.720865    411.155900
PG29  25415.202609  -2748.955522   7274.684495   -473.940065
PG30 -13925.768609   8481.774655 -20929.012562   -510.213277
PG31   3557.775334 -16074.005779  20621.034421   -162.391404
PG32  16752.522213 -16256.562915  12617.057515    -59.077467
PR01 -15625.958551   3416.933658  19867.751732      7.084269
PR02 -18343.507577  17441.374223   3472.291821    508.133737
PR03  -9238.731994  19606.214934 -13455.829079     50.742716
PR04   4682.240161  10587.698176 -22704.296718    125.684855
PR05  16086.719592  -4105.557403 -19344.847161     86.845253
PR07   8611.965522 -19383.724885  14168.663805     31.171837
PR08  -4941.560039 -10560.883014  22739.266281    -63.346149
PR09   7113.040565 -11963.441765  21404.448475     36.831676
PR11 -10927.389656 -21936.291675  -7085.163213     46.409228
PR12 -12796.722928  -7097.005643 -20867.008473     17.039025
PR13  -7469.093104  10743.147028 -21918.673029    -17.676296
PR14   2809.080528  23466.524848  -9580.097192     73.794564
PR15  10930.464732  21691.599405   7811.880618     98.546495
PR17   -395.678890  10693.959366  23169.656435    497.207916
PR18  16487.412139  11143.851954  15943.149347    105.575380
PR19  24513.396268   6931.156822   1316.566094   -176.335124
PR20  18385.145270  -3174.385182 -17357.189590    -63.997743
PR21  -1076.902607 -10879.870846 -23038.735381   -274.132890
PR22 -17305.350064 -11068.722831 -15198.463055   -161.468859
PR24 -17885.015893   4284.228875  17693.065827     77.964677
EOF
